IRIDIUM 155             
1 43573U 18061E   23292.51470616  .00000152  00000+0  47324-4 0  9997
2 43573  86.3913 102.7996 0001889  84.6428 275.4983 14.34217458274084
IRIDIUM 154             
1 43574U 18061F   23292.49567529  .00000204  00000+0  65706-4 0  9997
2 43574  86.3918 102.8937 0002324  87.4806 272.6655 14.34219218274139
IRIDIUM 163             
1 43575U 18061G   23292.47664928  .00000216  00000+0  70035-4 0  9991
2 43575  86.3916 102.8473 0002190  90.6849 269.4597 14.34217226274100
IRIDIUM 156             
1 43576U 18061H   23291.75359096  .00000165  00000+0  51681-4 0  9998
2 43576  86.3915 103.1558 0001901  93.8070 266.3343 14.34219192273993
IRIDIUM 164             
1 43577U 18061J   23292.50201791  .00000177  00000+0  56201-4 0  9997
2 43577  86.3918 102.8679 0002093  94.9732 265.1703 14.34219687274141
IRIDIUM 159             
1 43578U 18061K   23292.47030267  .00000207  00000+0  66950-4 0  9998
2 43578  86.3914 102.8384 0002103  87.0248 273.1189 14.34218963274107
IRIDIUM 180             
1 43922U 19002A   23292.40003126  .00000030  00000+0  35501-5 0  9997
2 43922  86.4007  39.7142 0002336  95.8971 264.2491 14.34214720249704
IRIDIUM 176             
1 43923U 19002B   23292.35664134  .00002398  00000+0  37613-3 0  9997
2 43923  86.6133  39.7656 0002385  93.1046 267.0443 14.72273131256265
IRIDIUM 168             
1 43924U 19002C   23290.37039855  .00000608  00000+0  21007-3 0  9996
2 43924  86.4007  40.6118 0002296  93.4585 266.6873 14.34221977249397
IRIDIUM 173             
1 43925U 19002D   23292.38100573  .00000067  00000+0  17021-4 0  9997
2 43925  86.4004  39.7002 0002275  94.2443 265.9012 14.34214225249660
IRIDIUM 169             
1 43926U 19002E   23292.48853831  .00000839  00000+0  26784-3 0  9993
2 43926  86.4204  71.2727 0001836 345.6249  14.4897 14.38609247250528
IRIDIUM 172             
1 43927U 19002F   23292.37466075  .00000594  00000+0  20489-3 0  9996
2 43927  86.4004  39.7084 0002224  91.9539 268.1912 14.34220496249678
IRIDIUM 175             
1 43928U 19002G   23292.35051876  .00002418  00000+0  37934-3 0  9994
2 43928  86.1558  26.5887 0002249  93.3358 266.8116 14.72265762256257
IRIDIUM 171             
1 43929U 19002H   23292.35563291  .00000652  00000+0  22560-3 0  9991
2 43929  86.4013  39.9146 0002271  96.6312 263.5143 14.34219010249668
IRIDIUM 170             
1 43930U 19002J   23292.49875295  .00002404  00000+0  37709-3 0  9996
2 43930  86.6133  39.7110 0002178  93.8684 266.2782 14.72274198256297
IRIDIUM 167             
1 43931U 19002K   23291.58183766  .00000570  00000+0  19662-3 0  9991
2 43931  86.4003  40.0530 0002130  97.7894 262.3543 14.34219276249554
IRIDIUM 181             
1 56726U 23068S   23290.66737269  .00000417  00000+0  11731-3 0  9994
2 56726  86.8587  82.3697 0001950 127.9823 232.1555 14.43589727 22009
IRIDIUM 177             
1 56727U 23068T   23292.41409877  .00003287  00000+0  42889-3 0  9997
2 56727  86.1961  70.1303 0002330  91.3609 268.7879 14.80242413 22617
IRIDIUM 174             
1 56728U 23068U   23292.40866905  .00003270  00000+0  42667-3 0  9992
2 56728  86.1964  70.2167 0002210  85.8868 274.2605 14.80242594 22611
IRIDIUM 178             
1 56729U 23068V   23292.47078811  .00003223  00000+0  42057-3 0  9992
2 56729  86.5753  76.1985 0002413  85.9979 274.1518 14.80243255 22622
IRIDIUM 179             
1 56730U 23068W   23292.46540675  .00003180  00000+0  41492-3 0  9999
2 56730  86.6760  77.2917 0002336  89.5693 270.5796 14.80242992 22622
